1 43013U 17073A   26088.14130129  .00000102  00000+0  69080-4 0  9993
2 43013  98.7714  28.3377 0001899 111.4734 248.6645 14.19541157433112
